start=new Date('2022-09-12T00:00:00.000Z').valueOf();
sats=[{"OBJECT_NAME":"STARLINK-2589","ELEMENT_SET_NO":"999","DECAY_DATE":null,"MEAN_ANOMALY":"280.6497","MEAN_MOTION":"15.06387075","INCLINATION":"53.0526","MEAN_MOTION_DOT":"-0.00001773","CLASSIFICATION_TYPE":"U","BSTAR":"-0.00010017000000","ARG_OF_PERICENTER":"79.4646","MEAN_ELEMENT_THEORY":"SGP4","FILE":"3569361","NORAD_CAT_ID":"48371","PERIOD":"95.593","RCS_SIZE":"LARGE","CENTER_NAME":"EARTH","GP_ID":"212356910","ECCENTRICITY":"0.00013660","REF_FRAME":"TEME","TLE_LINE2":"2 48371  53.0526 315.5536 0001366  79.4646 280.6497 15.06387075 74982","TLE_LINE1":"1 48371U 21038U   22254.64040810 -.00001773  00000-0 -10017-3 0  9997","PERIAPSIS":"546.307","SEMIMAJOR_AXIS":"6925.388","MEAN_MOTION_DDOT":"0.0000000000000","EPOCH":"2022-09-11T15:22:11.259840","TIME_SYSTEM":"UTC","OBJECT_TYPE":"PAYLOAD","REV_AT_EPOCH":"7498","EPHEMERIS_TYPE":"0","COUNTRY_CODE":"US","APOAPSIS":"548.199","SITE":"AFETR","LAUNCH_DATE":"2021-05-04","RA_OF_ASC_NODE":"315.5536","OBJECT_ID":"2021-038U"},{"EPHEMERIS_TYPE":"0","REV_AT_EPOCH":"7495","OBJECT_TYPE":"PAYLOAD","TIME_SYSTEM":"UTC","EPOCH":"2022-09-11T10:30:15.851808","PERIAPSIS":"546.243","SEMIMAJOR_AXIS":"6925.379","MEAN_MOTION_DDOT":"0.0000000000000","TLE_LINE1":"1 48372U 21038V   22254.43768347 -.00000477  00000-0 -13116-4 0  9991","TLE_LINE2":"2 48372  53.0542 316.4617 0001445  85.7091 274.4063 15.06390125 74950","OBJECT_ID":"2021-038V","RA_OF_ASC_NODE":"316.4617","LAUNCH_DATE":"2021-05-04","SITE":"AFETR","APOAPSIS":"548.245","COUNTRY_CODE":"US","MEAN_MOTION_DOT":"-0.00000477","INCLINATION":"53.0542","MEAN_MOTION":"15.06390125","MEAN_ANOMALY":"274.4063","DECAY_DATE":null,"ELEMENT_SET_NO":"999","OBJECT_NAME":"STARLINK-2572","REF_FRAME":"TEME","GP_ID":"212320208","ECCENTRICITY":"0.00014450","RCS_SIZE":"LARGE","PERIOD":"95.593","CENTER_NAME":"EARTH","NORAD_CAT_ID":"48372","FILE":"3568903","MEAN_ELEMENT_THEORY":"SGP4","ARG_OF_PERICENTER":"85.7091","BSTAR":"-0.00001311600000","CLASSIFICATION_TYPE":"U"},{"TIME_SYSTEM":"UTC","SEMIMAJOR_AXIS":"6925.380","PERIAPSIS":"546.301","MEAN_MOTION_DDOT":"0.0000000000000","EPOCH":"2022-09-11T13:36:01.985760","TLE_LINE1":"1 48373U 21038W   22254.56668965 -.00001306  00000-0 -68845-4 0  9992","TLE_LINE2":"2 48373  53.0541 315.8688 0001363  86.7146 273.3999 15.06389670 74973","EPHEMERIS_TYPE":"0","REV_AT_EPOCH":"7497","OBJECT_TYPE":"PAYLOAD","LAUNCH_DATE":"2021-05-04","SITE":"AFETR","APOAPSIS":"548.189","COUNTRY_CODE":"US","OBJECT_ID":"2021-038W","RA_OF_ASC_NODE":"315.8688","DECAY_DATE":null,"ELEMENT_SET_NO":"999","OBJECT_NAME":"STARLINK-2609","MEAN_MOTION_DOT":"-0.00001306","MEAN_MOTION":"15.06389670","INCLINATION":"53.0541","MEAN_ANOMALY":"273.3999","FILE":"3569361","NORAD_CAT_ID":"48373","MEAN_ELEMENT_THEORY":"SGP4","ARG_OF_PERICENTER":"86.7146","BSTAR":"-0.00006884500000","CLASSIFICATION_TYPE":"U","REF_FRAME":"TEME","GP_ID":"212355411","ECCENTRICITY":"0.00013630","RCS_SIZE":"LARGE","PERIOD":"95.593","CENTER_NAME":"EARTH"},{"EPHEMERIS_TYPE":"0","REV_AT_EPOCH":"7497","OBJECT_TYPE":"PAYLOAD","TIME_SYSTEM":"UTC","MEAN_MOTION_DDOT":"0.0000000000000","PERIAPSIS":"546.082","SEMIMAJOR_AXIS":"6925.345","EPOCH":"2022-09-11T13:29:21.125184","TLE_LINE2":"2 48374  53.0544 315.8848 0001629  74.3829 285.7340 15.06401163 74970","TLE_LINE1":"1 48374U 21038X   22254.56205006  .00000983  00000-0  84877-4 0  9997","OBJECT_ID":"2021-038X","RA_OF_ASC_NODE":"315.8848","LAUNCH_DATE":"2021-05-04","SITE":"AFETR","APOAPSIS":"548.338","COUNTRY_CODE":"US","MEAN_MOTION_DOT":"0.00000983","INCLINATION":"53.0544","MEAN_MOTION":"15.06401163","MEAN_ANOMALY":"285.7340","DECAY_DATE":null,"ELEMENT_SET_NO":"999","OBJECT_NAME":"STARLINK-2604","REF_FRAME":"TEME","GP_ID":"212356662","ECCENTRICITY":"0.00016290","PERIOD":"95.592","RCS_SIZE":"LARGE","CENTER_NAME":"EARTH","NORAD_CAT_ID":"48374","FILE":"3569361","MEAN_ELEMENT_THEORY":"SGP4","ARG_OF_PERICENTER":"74.3829","BSTAR":"0.00008487700000","CLASSIFICATION_TYPE":"U"},{"BSTAR":"-0.00000198490000","ARG_OF_PERICENTER":"62.7748","CLASSIFICATION_TYPE":"U","MEAN_ELEMENT_THEORY":"SGP4","NORAD_CAT_ID":"48375","FILE":"3569361","RCS_SIZE":"LARGE","PERIOD":"95.592","CENTER_NAME":"EARTH","GP_ID":"212356411","REF_FRAME":"TEME","ECCENTRICITY":"0.00013570","OBJECT_NAME":"STARLINK-2603","DECAY_DATE":null,"ELEMENT_SET_NO":"999","MEAN_ANOMALY":"297.3379","INCLINATION":"53.0538","MEAN_MOTION":"15.06396523","MEAN_MOTION_DOT":"-0.00000311","COUNTRY_CODE":"US","APOAPSIS":"548.164","SITE":"AFETR","LAUNCH_DATE":"2021-05-04","RA_OF_ASC_NODE":"315.9072","OBJECT_ID":"2021-038Y","TLE_LINE1":"1 48375U 21038Y   22254.55931424 -.00000311  00000-0 -19849-5 0  9992","TLE_LINE2":"2 48375  53.0538 315.9072 0001357  62.7748 297.3379 15.06396523 74977","EPOCH":"2022-09-11T13:25:24.750336","PERIAPSIS":"546.284","SEMIMAJOR_AXIS":"6925.359","MEAN_MOTION_DDOT":"0.0000000000000","TIME_SYSTEM":"UTC","OBJECT_TYPE":"PAYLOAD","REV_AT_EPOCH":"7497","EPHEMERIS_TYPE":"0"},{"TIME_SYSTEM":"UTC","SEMIMAJOR_AXIS":"6925.374","PERIAPSIS":"546.365","EPOCH":"2022-09-11T11:44:34.512576","MEAN_MOTION_DDOT":"0.0000000000000","TLE_LINE2":"2 48376  53.0532 316.2319 0001262  80.1502 279.9630 15.06391730 74967","TLE_LINE1":"1 48376U 21038Z   22254.48928834 -.00000241  00000-0  27084-5 0  9997","EPHEMERIS_TYPE":"0","REV_AT_EPOCH":"7496","OBJECT_TYPE":"PAYLOAD","LAUNCH_DATE":"2021-05-04","SITE":"AFETR","APOAPSIS":"548.113","COUNTRY_CODE":"US","OBJECT_ID":"2021-038Z","RA_OF_ASC_NODE":"316.2319","DECAY_DATE":null,"ELEMENT_SET_NO":"999","OBJECT_NAME":"STARLINK-2610","MEAN_MOTION_DOT":"-0.00000241","MEAN_MOTION":"15.06391730","INCLINATION":"53.0532","MEAN_ANOMALY":"279.9630","FILE":"3568903","NORAD_CAT_ID":"48376","MEAN_ELEMENT_THEORY":"SGP4","BSTAR":"0.00000270840000","CLASSIFICATION_TYPE":"U","ARG_OF_PERICENTER":"80.1502","GP_ID":"212319708","ECCENTRICITY":"0.00012620","REF_FRAME":"TEME","RCS_SIZE":"LARGE","PERIOD":"95.593","CENTER_NAME":"EARTH"},{"PERIAPSIS":"546.286","MEAN_MOTION_DDOT":"0.0000000000000","SEMIMAJOR_AXIS":"6925.365","EPOCH":"2022-09-11T16:25:52.842432","TLE_LINE1":"1 48377U 21038AA  22254.68463938 -.00000039  00000-0  16267-4 0  9994","TLE_LINE2":"2 48377  53.0551 315.3362 0001364  69.9993 290.1143 15.06394525 74991","TIME_SYSTEM":"UTC","REV_AT_EPOCH":"7499","OBJECT_TYPE":"PAYLOAD","EPHEMERIS_TYPE":"0","APOAPSIS":"548.175","COUNTRY_CODE":"US","LAUNCH_DATE":"2021-05-04","SITE":"AFETR","RA_OF_ASC_NODE":"315.3362","OBJECT_ID":"2021-038AA","OBJECT_NAME":"STARLINK-2499","DECAY_DATE":null,"ELEMENT_SET_NO":"999","MEAN_ANOMALY":"290.1143","MEAN_MOTION_DOT":"-0.00000039","MEAN_MOTION":"15.06394525","INCLINATION":"53.0551","CLASSIFICATION_TYPE":"U","BSTAR":"0.00001626700000","ARG_OF_PERICENTER":"69.9993","FILE":"3569361","NORAD_CAT_ID":"48377","MEAN_ELEMENT_THEORY":"SGP4","RCS_SIZE":"LARGE","PERIOD":"95.592","CENTER_NAME":"EARTH","GP_ID":"212355911","ECCENTRICITY":"0.00013640","REF_FRAME":"TEME"},{"BSTAR":"-0.00000749430000","CLASSIFICATION_TYPE":"U","ARG_OF_PERICENTER":"83.9245","MEAN_ELEMENT_THEORY":"SGP4","FILE":"3569361","NORAD_CAT_ID":"48378","RCS_SIZE":"LARGE","PERIOD":"95.593","CENTER_NAME":"EARTH","REF_FRAME":"TEME","GP_ID":"212356163","ECCENTRICITY":"0.00010870","OBJECT_NAME":"STARLINK-2526","DECAY_DATE":null,"ELEMENT_SET_NO":"999","MEAN_ANOMALY":"276.1867","MEAN_MOTION":"15.06394102","INCLINATION":"53.0542","MEAN_MOTION_DOT":"-0.00000393","COUNTRY_CODE":"US","APOAPSIS":"547.984","SITE":"AFETR","LAUNCH_DATE":"2021-05-04","RA_OF_ASC_NODE":"315.6677","OBJECT_ID":"2021-038AB","TLE_LINE1":"1 48378U 21038AB  22254.61460500 -.00000393  00000-0 -74943-5 0  9990","TLE_LINE2":"2 48378  53.0542 315.6677 0001087  83.9245 276.1867 15.06394102 74989","PERIAPSIS":"546.479","SEMIMAJOR_AXIS":"6925.367","MEAN_MOTION_DDOT":"0.0000000000000","EPOCH":"2022-09-11T14:45:01.872000","TIME_SYSTEM":"UTC","OBJECT_TYPE":"PAYLOAD","REV_AT_EPOCH":"7498","EPHEMERIS_TYPE":"0"},{"PERIOD":"95.593","RCS_SIZE":"LARGE","CENTER_NAME":"EARTH","ECCENTRICITY":"0.00013170","GP_ID":"212319959","REF_FRAME":"TEME","BSTAR":"-0.00003156300000","CLASSIFICATION_TYPE":"U","ARG_OF_PERICENTER":"82.7869","MEAN_ELEMENT_THEORY":"SGP4","FILE":"3568903","NORAD_CAT_ID":"48379","MEAN_ANOMALY":"277.3270","MEAN_MOTION":"15.06386560","INCLINATION":"53.0552","MEAN_MOTION_DOT":"-0.00000751","OBJECT_NAME":"STARLINK-2612","DECAY_DATE":null,"ELEMENT_SET_NO":"999","RA_OF_ASC_NODE":"316.5695","OBJECT_ID":"2021-038AC","COUNTRY_CODE":"US","APOAPSIS":"548.167","SITE":"AFETR","LAUNCH_DATE":"2021-05-04","OBJECT_TYPE":"PAYLOAD","REV_AT_EPOCH":"7495","EPHEMERIS_TYPE":"0","TLE_LINE2":"2 48379  53.0552 316.5695 0001317  82.7869 277.3270 15.06386560 74953","TLE_LINE1":"1 48379U 21038AC  22254.41188763 -.00000751  00000-0 -31563-4 0  9995","PERIAPSIS":"546.343","EPOCH":"2022-09-11T09:53:07.091232","SEMIMAJOR_AXIS":"6925.390","MEAN_MOTION_DDOT":"0.0000000000000","TIME_SYSTEM":"UTC"},{"MEAN_MOTION_DOT":"-0.00000561","INCLINATION":"53.0547","MEAN_MOTION":"15.06392081","MEAN_ANOMALY":"288.2849","DECAY_DATE":null,"ELEMENT_SET_NO":"999","OBJECT_NAME":"STARLINK-2614","GP_ID":"212355661","ECCENTRICITY":"0.00015090","REF_FRAME":"TEME","RCS_SIZE":"LARGE","CENTER_NAME":"EARTH","PERIOD":"95.593","NORAD_CAT_ID":"48380","FILE":"3569361","MEAN_ELEMENT_THEORY":"SGP4","ARG_OF_PERICENTER":"71.8304","BSTAR":"-0.00001878800000","CLASSIFICATION_TYPE":"U","EPHEMERIS_TYPE":"0","REV_AT_EPOCH":"7497","OBJECT_TYPE":"PAYLOAD","TIME_SYSTEM":"UTC","MEAN_MOTION_DDOT":"0.0000000000000","PERIAPSIS":"546.193","SEMIMAJOR_AXIS":"6925.373","EPOCH":"2022-09-11T13:39:58.597344","TLE_LINE1":"1 48380U 21038AD  22254.56942821 -.00000561  00000-0 -18788-4 0  9999","TLE_LINE2":"2 48380  53.0547 315.8602 0001509  71.8304 288.2849 15.06392081 74975","OBJECT_ID":"2021-038AD","RA_OF_ASC_NODE":"315.8602","LAUNCH_DATE":"2021-05-04","SITE":"AFETR","APOAPSIS":"548.283","COUNTRY_CODE":"US"}];
